1 41456U 16025A   21028.52705968 -.00000090  00000-0 -93600-5 0  9993
2 41456  98.1816  38.1151 0001338  84.8371 275.2989 14.59198517253552
