<?xml version="1.0" encoding="utf-8"?>
<ndm xmlns:xsi="http://www.w3.org/2001/XMLSchema-instance" xsi:noNamespaceSchemaLocation="http://sanaregistry.org/r/ndmxml/ndmxml-1.0-master.xsd"><omm id="CCSDS_OMM_VERS" version="2.0"><header><COMMENT>GENERATED VIA SPACE-TRACK.ORG API</COMMENT><CREATION_DATE>2021-01-28T20:49:41</CREATION_DATE><ORIGINATOR>18 SPCS</ORIGINATOR></header><body><segment><metadata><OBJECT_NAME>SENTINEL 1B</OBJECT_NAME><OBJECT_ID>2016-025A</OBJECT_ID><CENTER_NAME>EARTH</CENTER_NAME><REF_FRAME>TEME</REF_FRAME><TIME_SYSTEM>UTC</TIME_SYSTEM><MEAN_ELEMENT_THEORY>SGP4</MEAN_ELEMENT_THEORY></metadata><data><meanElements><EPOCH>2021-01-28T12:38:57.956352</EPOCH><MEAN_MOTION>14.59198517</MEAN_MOTION><ECCENTRICITY>0.00013380</ECCENTRICITY><INCLINATION>98.1816</INCLINATION><RA_OF_ASC_NODE>38.1151</RA_OF_ASC_NODE><ARG_OF_PERICENTER>84.8371</ARG_OF_PERICENTER><MEAN_ANOMALY>275.2989</MEAN_ANOMALY></meanElements><tleParameters><EPHEMERIS_TYPE>0</EPHEMERIS_TYPE><CLASSIFICATION_TYPE>U</CLASSIFICATION_TYPE><NORAD_CAT_ID>41456</NORAD_CAT_ID><ELEMENT_SET_NO>999</ELEMENT_SET_NO><REV_AT_EPOCH>25355</REV_AT_EPOCH><BSTAR>-0.00000936000000</BSTAR><MEAN_MOTION_DOT>-0.00000090</MEAN_MOTION_DOT><MEAN_MOTION_DDOT>0.0000000000000</MEAN_MOTION_DDOT></tleParameters><userDefinedParameters><USER_DEFINED parameter="SEMIMAJOR_AXIS">7073.900</USER_DEFINED><USER_DEFINED parameter="PERIOD">98.684</USER_DEFINED><USER_DEFINED parameter="APOAPSIS">696.712</USER_DEFINED><USER_DEFINED parameter="PERIAPSIS">694.819</USER_DEFINED><USER_DEFINED parameter="OBJECT_TYPE">PAYLOAD</USER_DEFINED><USER_DEFINED parameter="RCS_SIZE">LARGE</USER_DEFINED><USER_DEFINED parameter="COUNTRY_CODE">ESA</USER_DEFINED><USER_DEFINED parameter="LAUNCH_DATE">2016-04-25</USER_DEFINED><USER_DEFINED parameter="SITE">FRGUI</USER_DEFINED><USER_DEFINED parameter="DECAY_DATE"/><USER_DEFINED parameter="FILE">2942815</USER_DEFINED><USER_DEFINED parameter="GP_ID">170573082</USER_DEFINED></userDefinedParameters></data></segment></body></omm></ndm>
